[{"OBJECT_NAME":"ONEWEB-0159","OBJECT_ID":"2021-025W","EPOCH":"2026-04-30T01:07:16.738464","MEAN_MOTION":13.13472145,"ECCENTRICITY":0.0001501,"INCLINATION":87.897,"RA_OF_ASC_NODE":329.8013,"ARG_OF_PERICENTER":80.5707,"MEAN_ANOMALY":279.5592,"EPHEMERIS_TYPE":0,"CLASSIFICATION_TYPE":"U","NORAD_CAT_ID":48062,"ELEMENT_SET_NO":999,"REV_AT_EPOCH":24728,"BSTAR":0.00038119,"MEAN_MOTION_DOT":1.52e-06,"MEAN_MOTION_DDOT":0.0},{"OBJECT_NAME":"ONEWEB-0164","OBJECT_ID":"2021-025X","EPOCH":"2026-04-30T02:30:09.301248","MEAN_MOTION":13.13470205,"ECCENTRICITY":0.0001808,"INCLINATION":87.8969,"RA_OF_ASC_NODE":329.7962,"ARG_OF_PERICENTER":84.9818,"MEAN_ANOMALY":275.1518,"EPHEMERIS_TYPE":0,"CLASSIFICATION_TYPE":"U","NORAD_CAT_ID":48063,"ELEMENT_SET_NO":999,"REV_AT_EPOCH":24727,"BSTAR":0.00099287,"MEAN_MOTION_DOT":3.75e-06,"MEAN_MOTION_DDOT":0.0},{"OBJECT_NAME":"ONEWEB-0167","OBJECT_ID":"2021-025Y","EPOCH":"2026-04-30T03:10:22.410912","MEAN_MOTION":13.13469042,"ECCENTRICITY":0.0001632,"INCLINATION":87.8964,"RA_OF_ASC_NODE":329.805,"ARG_OF_PERICENTER":63.0163,"MEAN_ANOMALY":297.1133,"EPHEMERIS_TYPE":0,"CLASSIFICATION_TYPE":"U","NORAD_CAT_ID":48064,"ELEMENT_SET_NO":999,"REV_AT_EPOCH":24726,"BSTAR":-0.0003889,"MEAN_MOTION_DOT":-1.29e-06,"MEAN_MOTION_DDOT":0.0},{"OBJECT_NAME":"ONEWEB-0166","OBJECT_ID":"2021-025Z","EPOCH":"2026-04-30T00:03:52.128288","MEAN_MOTION":13.13472167,"ECCENTRICITY":0.000157,"INCLINATION":87.8965,"RA_OF_ASC_NODE":329.7976,"ARG_OF_PERICENTER":91.7989,"MEAN_ANOMALY":268.332,"EPHEMERIS_TYPE":0,"CLASSIFICATION_TYPE":"U","NORAD_CAT_ID":48065,"ELEMENT_SET_NO":999,"REV_AT_EPOCH":24732,"BSTAR":-0.0011583000000000001,"MEAN_MOTION_DOT":-4.1e-06,"MEAN_MOTION_DDOT":0.0},{"OBJECT_NAME":"ONEWEB-0151","OBJECT_ID":"2021-025AA","EPOCH":"2026-04-30T00:06:18.848448","MEAN_MOTION":13.13470245,"ECCENTRICITY":0.0001764,"INCLINATION":87.8959,"RA_OF_ASC_NODE":329.8191,"ARG_OF_PERICENTER":81.3463,"MEAN_ANOMALY":278.7866,"EPHEMERIS_TYPE":0,"CLASSIFICATION_TYPE":"U","NORAD_CAT_ID":48066,"ELEMENT_SET_NO":999,"REV_AT_EPOCH":24726,"BSTAR":-0.00042696,"MEAN_MOTION_DOT":-1.43e-06,"MEAN_MOTION_DDOT":0.0},{"OBJECT_NAME":"ONEWEB-0170","OBJECT_ID":"2021-025AB","EPOCH":"2026-04-30T02:08:12.682752","MEAN_MOTION":13.13471178,"ECCENTRICITY":0.0002111,"INCLINATION":87.8956,"RA_OF_ASC_NODE":329.804,"ARG_OF_PERICENTER":77.8857,"MEAN_ANOMALY":282.2508,"EPHEMERIS_TYPE":0,"CLASSIFICATION_TYPE":"U","NORAD_CAT_ID":48067,"ELEMENT_SET_NO":999,"REV_AT_EPOCH":24723,"BSTAR":0.00018087,"MEAN_MOTION_DOT":7.9e-07,"MEAN_MOTION_DDOT":0.0},{"OBJECT_NAME":"ONEWEB-0168","OBJECT_ID":"2021-025AC","EPOCH":"2026-04-29T23:56:34.089792","MEAN_MOTION":13.13470878,"ECCENTRICITY":0.0001525,"INCLINATION":87.8968,"RA_OF_ASC_NODE":329.8176,"ARG_OF_PERICENTER":85.0503,"MEAN_ANOMALY":275.0801,"EPHEMERIS_TYPE":0,"CLASSIFICATION_TYPE":"U","NORAD_CAT_ID":48068,"ELEMENT_SET_NO":999,"REV_AT_EPOCH":24723,"BSTAR":-0.00063878,"MEAN_MOTION_DOT":-2.21e-06,"MEAN_MOTION_DDOT":0.0},{"OBJECT_NAME":"ONEWEB-0173","OBJECT_ID":"2021-025AD","EPOCH":"2026-04-30T03:23:46.210848","MEAN_MOTION":13.13469781,"ECCENTRICITY":0.0001448,"INCLINATION":87.8964,"RA_OF_ASC_NODE":329.7934,"ARG_OF_PERICENTER":76.0555,"MEAN_ANOMALY":284.0735,"EPHEMERIS_TYPE":0,"CLASSIFICATION_TYPE":"U","NORAD_CAT_ID":48069,"ELEMENT_SET_NO":999,"REV_AT_EPOCH":24749,"BSTAR":-0.00097422,"MEAN_MOTION_DOT":-3.43e-06,"MEAN_MOTION_DDOT":0.0},{"OBJECT_NAME":"ONEWEB-0171","OBJECT_ID":"2021-025AE","EPOCH":"2026-04-30T02:27:42.419520","MEAN_MOTION":13.13470673,"ECCENTRICITY":0.0001765,"INCLINATION":87.8958,"RA_OF_ASC_NODE":329.8107,"ARG_OF_PERICENTER":82.7963,"MEAN_ANOMALY":277.3367,"EPHEMERIS_TYPE":0,"CLASSIFICATION_TYPE":"U","NORAD_CAT_ID":48070,"ELEMENT_SET_NO":999,"REV_AT_EPOCH":24730,"BSTAR":0.0007109,"MEAN_MOTION_DOT":2.72e-06,"MEAN_MOTION_DDOT":0.0},{"OBJECT_NAME":"ONEWEB-0172","OBJECT_ID":"2021-025AF","EPOCH":"2026-04-30T00:08:44.133504","MEAN_MOTION":13.13471533,"ECCENTRICITY":0.000168,"INCLINATION":87.896,"RA_OF_ASC_NODE":329.8175,"ARG_OF_PERICENTER":80.5416,"MEAN_ANOMALY":279.5903,"EPHEMERIS_TYPE":0,"CLASSIFICATION_TYPE":"U","NORAD_CAT_ID":48071,"ELEMENT_SET_NO":999,"REV_AT_EPOCH":24818,"BSTAR":-0.00037784,"MEAN_MOTION_DOT":-1.25e-06,"MEAN_MOTION_DDOT":0.0},{"OBJECT_NAME":"ONEWEB-0174","OBJECT_ID":"2021-025AG","EPOCH":"2026-04-30T03:21:19.416384","MEAN_MOTION":13.13470435,"ECCENTRICITY":0.0001602,"INCLINATION":87.8958,"RA_OF_ASC_NODE":329.7914,"ARG_OF_PERICENTER":89.4607,"MEAN_ANOMALY":270.6706,"EPHEMERIS_TYPE":0,"CLASSIFICATION_TYPE":"U","NORAD_CAT_ID":48072,"ELEMENT_SET_NO":999,"REV_AT_EPOCH":24752,"BSTAR":-0.00062115,"MEAN_MOTION_DOT":-2.14e-06,"MEAN_MOTION_DDOT":0.0},{"OBJECT_NAME":"ONEWEB-0175","OBJECT_ID":"2021-025AH","EPOCH":"2026-04-30T02:15:30.969216","MEAN_MOTION":13.13470681,"ECCENTRICITY":0.0001884,"INCLINATION":87.8968,"RA_OF_ASC_NODE":329.7812,"ARG_OF_PERICENTER":75.9705,"MEAN_ANOMALY":284.1633,"EPHEMERIS_TYPE":0,"CLASSIFICATION_TYPE":"U","NORAD_CAT_ID":48073,"ELEMENT_SET_NO":999,"REV_AT_EPOCH":24717,"BSTAR":0.00037573,"MEAN_MOTION_DOT":1.5e-06,"MEAN_MOTION_DDOT":0.0},{"OBJECT_NAME":"ONEWEB-0177","OBJECT_ID":"2021-025AJ","EPOCH":"2026-04-30T02:32:33.717120","MEAN_MOTION":13.13471576,"ECCENTRICITY":0.0001499,"INCLINATION":87.8963,"RA_OF_ASC_NODE":329.7994,"ARG_OF_PERICENTER":86.8249,"MEAN_ANOMALY":273.3052,"EPHEMERIS_TYPE":0,"CLASSIFICATION_TYPE":"U","NORAD_CAT_ID":48074,"ELEMENT_SET_NO":999,"REV_AT_EPOCH":24736,"BSTAR":0.0010665,"MEAN_MOTION_DOT":4.02e-06,"MEAN_MOTION_DDOT":0.0},{"OBJECT_NAME":"ONEWEB-0178","OBJECT_ID":"2021-025AK","EPOCH":"2026-04-30T01:09:54.565344","MEAN_MOTION":13.13469085,"ECCENTRICITY":0.0001683,"INCLINATION":87.8949,"RA_OF_ASC_NODE":329.8301,"ARG_OF_PERICENTER":76.3234,"MEAN_ANOMALY":283.8083,"EPHEMERIS_TYPE":0,"CLASSIFICATION_TYPE":"U","NORAD_CAT_ID":48075,"ELEMENT_SET_NO":999,"REV_AT_EPOCH":24740,"BSTAR":0.00029504000000000005,"MEAN_MOTION_DOT":1.2e-06,"MEAN_MOTION_DDOT":0.0},{"OBJECT_NAME":"ONEWEB-0108","OBJECT_ID":"2021-025AL","EPOCH":"2026-04-30T02:00:53.874432","MEAN_MOTION":13.134709,"ECCENTRICITY":0.000184,"INCLINATION":87.8969,"RA_OF_ASC_NODE":329.793,"ARG_OF_PERICENTER":92.0843,"MEAN_ANOMALY":268.0497,"EPHEMERIS_TYPE":0,"CLASSIFICATION_TYPE":"U","NORAD_CAT_ID":48076,"ELEMENT_SET_NO":999,"REV_AT_EPOCH":24733,"BSTAR":-0.00021713,"MEAN_MOTION_DOT":-6.7e-07,"MEAN_MOTION_DDOT":0.0},{"OBJECT_NAME":"ONEWEB-0169","OBJECT_ID":"2021-025AM","EPOCH":"2026-04-30T06:26:37.491936","MEAN_MOTION":13.13471055,"ECCENTRICITY":0.0001628,"INCLINATION":87.8959,"RA_OF_ASC_NODE":329.7685,"ARG_OF_PERICENTER":88.7534,"MEAN_ANOMALY":271.3782,"EPHEMERIS_TYPE":0,"CLASSIFICATION_TYPE":"U","NORAD_CAT_ID":48077,"ELEMENT_SET_NO":999,"REV_AT_EPOCH":24601,"BSTAR":0.00085528,"MEAN_MOTION_DOT":3.25e-06,"MEAN_MOTION_DDOT":0.0}]