ONEWEB-0159             
1 48062U 21025W   26120.04672151  .00000152  00000+0  38119-3 0  9999
2 48062  87.8970 329.8013 0001501  80.5707 279.5592 13.13472145247284
ONEWEB-0164             
1 48063U 21025X   26120.10427432  .00000375  00000+0  99287-3 0  9997
2 48063  87.8969 329.7962 0001808  84.9818 275.1518 13.13470205247270
ONEWEB-0167             
1 48064U 21025Y   26120.13220383 -.00000129  00000+0 -38890-3 0  9999
2 48064  87.8964 329.8050 0001632  63.0163 297.1133 13.13469042247264
ONEWEB-0166             
1 48065U 21025Z   26120.00268667 -.00000410  00000+0 -11583-2 0  9995
2 48065  87.8965 329.7976 0001570  91.7989 268.3320 13.13472167247324
ONEWEB-0151             
1 48066U 21025AA  26120.00438482 -.00000143  00000+0 -42696-3 0  9993
2 48066  87.8959 329.8191 0001764  81.3463 278.7866 13.13470245247263
ONEWEB-0170             
1 48067U 21025AB  26120.08903568  .00000079  00000+0  18087-3 0  9997
2 48067  87.8956 329.8040 0002111  77.8857 282.2508 13.13471178247234
ONEWEB-0168             
1 48068U 21025AC  26119.99761678 -.00000221  00000+0 -63878-3 0  9999
2 48068  87.8968 329.8176 0001525  85.0503 275.0801 13.13470878247237
ONEWEB-0173             
1 48069U 21025AD  26120.14150707 -.00000343  00000+0 -97422-3 0  9991
2 48069  87.8964 329.7934 0001448  76.0555 284.0735 13.13469781247491
ONEWEB-0171             
1 48070U 21025AE  26120.10257430  .00000272  00000+0  71090-3 0  9992
2 48070  87.8958 329.8107 0001765  82.7963 277.3367 13.13470673247306
ONEWEB-0172             
1 48071U 21025AF  26120.00606636 -.00000125  00000+0 -37784-3 0  9999
2 48071  87.8960 329.8175 0001680  80.5416 279.5903 13.13471533248183
ONEWEB-0174             
1 48072U 21025AG  26120.13980806 -.00000214  00000+0 -62115-3 0  9993
2 48072  87.8958 329.7914 0001602  89.4607 270.6706 13.13470435247525
ONEWEB-0175             
1 48073U 21025AH  26120.09410844  .00000150  00000+0  37573-3 0  9996
2 48073  87.8968 329.7812 0001884  75.9705 284.1633 13.13470681247178
ONEWEB-0177             
1 48074U 21025AJ  26120.10594580  .00000402  00000+0  10665-2 0  9991
2 48074  87.8963 329.7994 0001499  86.8249 273.3052 13.13471576247361
ONEWEB-0178             
1 48075U 21025AK  26120.04854821  .00000120  00000+0  29504-3 0  9992
2 48075  87.8949 329.8301 0001683  76.3234 283.8083 13.13469085247409
ONEWEB-0108             
1 48076U 21025AL  26120.08395688 -.00000067  00000+0 -21713-3 0  9994
2 48076  87.8969 329.7930 0001840  92.0843 268.0497 13.13470900247339
ONEWEB-0169             
1 48077U 21025AM  26120.26848949  .00000325  00000+0  85528-3 0  9997
2 48077  87.8959 329.7685 0001628  88.7534 271.3782 13.13471055246019
